     2.11           N: GPS NAV DATA                         RINEX VERSION / TYPE
teqc  2018Dec12     gpsops              20220308 01:04:04UTCPGM / RUN BY / DATE
Linux 2.6.32-573.12.1.x86_64|x86_64|gcc -static|Linux 64|=+ COMMENT
CHPI                                    MARKER NAME         COMMENT
41609M003                               MARKER NUMBER       COMMENT
4164613.9484 -4162456.9866 -2445028.7316                    COMMENT
                                                            COMMENT
This data is provided as a public service by NASA/JPL.      COMMENT
No warranty is expressed or implied regarding suitability   COMMENT
for use.  For further information, contact:                 COMMENT
Dave Stowers, NASA/JPL m/s 238-600                          COMMENT
4800 Oak Grove Drive, Pasadena CA 91109 USA                 COMMENT
                                                            END OF HEADER
15 22  3  7 14  0  0.0-7.861480116844D-05 2.955857780762D-12 0.000000000000D+00
    3.200000000000D+01-4.218750000000D+01 5.450584181566D-09-2.256032801987D+00
   -2.374872565269D-06 1.394181360956D-02 6.405636668205D-06 5.153745693207D+03
    1.368000000000D+05 1.881271600723D-07-3.291659217333D-01-1.117587089539D-08
    9.303284583374D-01 2.324375000000D+02 1.078757986029D+00-8.318203629427D-09
   -6.250260348431D-11 1.000000000000D+00 2.200000000000D+03 0.000000000000D+00
    2.000000000000D+00 0.000000000000D+00-1.071020960808D-08 3.200000000000D+01
    1.296180000000D+05 4.000000000000D+00
27 22  3  7 14  0  0.0 1.457212492824D-04 1.352873368887D-11 0.000000000000D+00
    6.800000000000D+01-4.662500000000D+01 4.228390415147D-09-1.296710325510D+00
   -2.423301339149D-06 1.034957962111D-02 5.101785063744D-06 5.153649187088D+03
    1.368000000000D+05 2.831220626831D-07 2.936973595253D+00-8.568167686462D-08
    9.734107155149D-01 2.869375000000D+02 6.474526468987D-01-8.029620180196D-09
   -3.128701751558D-10 1.000000000000D+00 2.200000000000D+03 0.000000000000D+00
    2.000000000000D+00 0.000000000000D+00 1.396983861923D-09 6.800000000000D+01
    1.296180000000D+05 4.000000000000D+00
32 22  3  7 14  0  0.0-8.023763075471D-05-7.162270776462D-12 0.000000000000D+00
    6.800000000000D+01-3.768750000000D+01 4.921633577222D-09-6.708354101418D-01
   -1.834705471992D-06 5.727057578042D-03 7.344409823418D-06 5.153568788528D+03
    1.368000000000D+05-1.862645149231D-09-2.113366801410D-01 1.043081283569D-07
    9.583736190338D-01 2.370937500000D+02-2.327016226298D+00-8.234985877359D-09
   -2.160804291886D-10 1.000000000000D+00 2.200000000000D+03 0.000000000000D+00
    2.000000000000D+00 0.000000000000D+00 4.656612873077D-10 6.800000000000D+01
    1.296180000000D+05 4.000000000000D+00
25 22  3  7 14  0  0.0 2.950457856059D-04 5.229594535194D-12 0.000000000000D+00
    7.500000000000D+01 7.515625000000D+01 4.885917803802D-09 1.184030968100D+00
    3.887340426445D-06 1.054629322607D-02 5.200505256653D-06 5.153702489853D+03
    1.368000000000D+05-1.527369022369D-07 1.885004568018D+00 5.774199962616D-08
    9.572211819101D-01 2.792812500000D+02 9.886344642509D-01-8.520712064716D-09
    3.571577341961D-12 1.000000000000D+00 2.200000000000D+03 0.000000000000D+00
    2.000000000000D+00 0.000000000000D+00 5.587935447693D-09 7.500000000000D+01
    1.296180000000D+05 4.000000000000D+00
22 22  3  7 14  0  0.0 2.238824963570D-04 5.798028723802D-12 0.000000000000D+00
    1.600000000000D+01-3.390625000000D+01 4.763055543239D-09-1.464047773866D+00
   -1.493841409683D-06 1.303161331452D-02 7.718801498413D-06 5.153658784866D+03
    1.368000000000D+05 1.750886440277D-07-1.212106918833D-01 2.663582563400D-07
    9.617024818086D-01 2.288437500000D+02-1.868835603041D+00-8.042120700893D-09
   -2.339383158984D-10 1.000000000000D+00 2.200000000000D+03 0.000000000000D+00
    2.000000000000D+00 0.000000000000D+00-9.778887033463D-09 1.600000000000D+01
    1.306380000000D+05 4.000000000000D+00
 8 22  3  7 14  0  0.0-5.889870226383D-05-1.477928890381D-12 0.000000000000D+00
    8.900000000000D+01-5.156250000000D+01 4.396254550220D-09-1.273021788982D+00
   -2.713873982430D-06 7.365480647422D-03 5.077570676804D-06 5.153728399277D+03
    1.368000000000D+05 2.421438694000D-08 2.917388046545D+00-1.732259988785D-07
    9.646905124663D-01 2.841875000000D+02 1.218868262870D-01-8.141053393266D-09
   -2.510818871398D-10 1.000000000000D+00 2.200000000000D+03 0.000000000000D+00
    2.000000000000D+00 0.000000000000D+00 5.122274160385D-09 8.900000000000D+01
    1.325580000000D+05 4.000000000000D+00
31 22  3  7 14  0  0.0-1.678578555584D-04-1.705302565824D-12 0.000000000000D+00
    8.600000000000D+01 3.715625000000D+01 4.601263089648D-09 1.642301999693D+00
    2.233311533928D-06 1.044399884995D-02 1.143850386143D-05 5.153705940247D+03
    1.368000000000D+05-1.136213541031D-07 8.670294954644D-01 1.713633537292D-07
    9.552654476917D-01 1.581562500000D+02 3.806890436039D-01-8.053906906122D-09
   -1.864363372504D-10 1.000000000000D+00 2.200000000000D+03 0.000000000000D+00
    2.000000000000D+00 0.000000000000D+00-1.350417733192D-08 8.600000000000D+01
    1.359780000000D+05 4.000000000000D+00
21 22  3  7 14  0  0.0 1.590698957443D-04 4.547473508865D-13 0.000000000000D+00
    6.700000000000D+01-2.490625000000D+01 4.270535027783D-09-1.151474646421D+00
   -1.356005668640D-06 2.456707938109D-02 1.057423651218D-05 5.153577600479D+03
    1.368000000000D+05-4.228204488754D-07-2.377508135751D+00-3.725290298462D-09
    9.596923636105D-01 1.846250000000D+02-9.910256887007D-01-8.236414508296D-09
    3.764442518427D-10 1.000000000000D+00 2.200000000000D+03 0.000000000000D+00
    2.000000000000D+00 0.000000000000D+00-1.024454832077D-08 6.700000000000D+01
    1.360920000000D+05 4.000000000000D+00
32 22  3  7 16  0  0.0-8.028978481889D-05-7.162270776462D-12 0.000000000000D+00
    6.900000000000D+01-3.418750000000D+01 4.848059083978D-09 3.794140870911D-01
   -1.860782504082D-06 5.727549316362D-03 7.400289177895D-06 5.153569725037D+03
    1.440000000000D+05-2.793967723846D-08-2.113958741953D-01 9.872019290924D-08
    9.583720785810D-01 2.370000000000D+02-2.327018293401D+00-8.223913987599D-09
   -2.314382117591D-10 1.000000000000D+00 2.200000000000D+03 0.000000000000D+00
    2.000000000000D+00 0.000000000000D+00 4.656612873077D-10 6.900000000000D+01
    1.368180000000D+05 4.000000000000D+00
27 22  3  7 16  0  0.0 1.458181068301D-04 1.341504685115D-11 0.000000000000D+00
    6.900000000000D+01-4.581250000000D+01 4.431256008171D-09-2.465000344816D-01
   -2.391636371613D-06 1.034987973981D-02 4.827976226807D-06 5.153649793625D+03
    1.440000000000D+05 4.842877388000D-08 2.936914916146D+00 1.825392246246D-07
    9.734067144340D-01 2.898125000000D+02 6.474366206311D-01-8.354990876049D-09
   -3.846588797292D-10 1.000000000000D+00 2.200000000000D+03 0.000000000000D+00
    2.000000000000D+00 0.000000000000D+00 1.396983861923D-09 6.900000000000D+01
    1.368180000000D+05 4.000000000000D+00
22 22  3  7 16  0  0.0 2.239244058728D-04 5.798028723802D-12 0.000000000000D+00
    6.000000000000D+01-3.187500000000D+01 4.799842789861D-09-4.138432467352D-01
   -1.639127731323D-06 1.303181867115D-02 8.052214980125D-06 5.153659259796D+03
    1.440000000000D+05-1.043081283569D-07-1.212701741324D-01 1.415610313416D-07
    9.616997403001D-01 2.297187500000D+02-1.868847957385D+00-8.318203629427D-09
   -1.960795960737D-10 1.000000000000D+00 2.200000000000D+03 0.000000000000D+00
    2.000000000000D+00 0.000000000000D+00-9.778887033463D-09 6.000000000000D+01
    1.368180000000D+05 4.000000000000D+00
10 22  3  7 16  0  0.0-3.399592824280D-04-1.114131009672D-11 0.000000000000D+00
    7.300000000000D+01 4.500000000000D+00 4.434113270044D-09 1.778018751721D+00
    2.682209014893D-07 7.527448702604D-03 6.606802344322D-06 5.153675392151D+03
    1.440000000000D+05-1.415610313416D-07-1.253799267784D+00 5.401670932770D-08
    9.723412053655D-01 2.577187500000D+02-2.503479996928D+00-8.073193423768D-09
    3.646580466142D-10 1.000000000000D+00 2.200000000000D+03 0.000000000000D+00
    2.000000000000D+00 0.000000000000D+00 2.328306436539D-09 7.300000000000D+01
    1.368180000000D+05 4.000000000000D+00
 8 22  3  7 16  0  0.0-5.890987813473D-05-1.477928890381D-12 0.000000000000D+00
    9.000000000000D+01-4.587500000000D+01 4.576976363723D-09-2.229670383293D-01
   -2.529472112656D-06 7.365264580585D-03 4.798173904419D-06 5.153727191925D+03
    1.440000000000D+05 1.136213541031D-07 2.917329605894D+00 9.313225746155D-08
    9.646873203791D-01 2.880000000000D+02 1.219795197023D-01-8.371062974088D-09
   -3.885876148053D-10 1.000000000000D+00 2.200000000000D+03 0.000000000000D+00
    2.000000000000D+00 0.000000000000D+00 5.122274160385D-09 9.000000000000D+01
    1.368180000000D+05 4.000000000000D+00
23 22  3  7 16  0  0.0-4.789326339960D-06-3.296918293927D-12 0.000000000000D+00
    2.600000000000D+01 9.718750000000D+00 4.509830709694D-09 3.083430660258D+00
    6.780028343201D-07 1.994353486225D-03 6.504356861115D-06 5.153698858261D+03
    1.440000000000D+05-1.862645149231D-08-1.278767902982D+00 1.862645149231D-08
    9.673951085979D-01 2.550000000000D+02 2.982995521943D+00-8.065693111350D-09
    4.400183285296D-10 1.000000000000D+00 2.200000000000D+03 0.000000000000D+00
    2.000000000000D+00 0.000000000000D+00-8.381903171539D-09 2.600000000000D+01
    1.368180000000D+05 4.000000000000D+00
16 22  3  7 16  0  0.0-4.778881557286D-04-4.547473508865D-12 0.000000000000D+00
    5.400000000000D+01 6.528125000000D+01 4.640550440410D-09 6.483355325887D-01
    3.702938556671D-06 1.278359151911D-02 4.900619387627D-06 5.153614284515D+03
    1.440000000000D+05-7.450580596924D-08 1.980567387450D+00 1.210719347000D-07
    9.697302462314D-01 2.877187500000D+02 7.156925907148D-01-8.436779997180D-09
   -5.285934466102D-11 1.000000000000D+00 2.200000000000D+03 0.000000000000D+00
    2.000000000000D+00 0.000000000000D+00-1.024454832077D-08 5.400000000000D+01
    1.368180000000D+05 4.000000000000D+00
